{
  "type": "FeatureCollection",
  "features": [
    {
      "type": "Feature",
      "properties": {
        "norad_id": 37781,
        "name": "HAIYANG-2A",
        "group": "resource",
        "lat": 22.07117003688987,
        "lon": -179.14471668240293,
        "alt_km": 967.5556639026445,
        "timestamp": "2025-12-22T05:49:03.139077+00:00",
        "meta_object_name": "HAIYANG-2A",
        "meta_object_id": "2011-043A",
        "meta_epoch": "2025-12-21T20:20:55.186080",
        "meta_mean_motion": 13.78835362,
        "meta_eccentricity": 0.0001625,
        "meta_inclination": 99.3371,
        "meta_ra_of_asc_node": 356.6419,
        "meta_arg_of_pericenter": 71.8688,
        "meta_mean_anomaly": 288.2641,
        "meta_ephemeris_type": 0,
        "meta_classification_type": "U",
        "meta_norad_cat_id": 37781,
        "meta_element_set_no": 999,
        "meta_rev_at_epoch": 72224,
        "meta_bstar": -0.00016936,
        "meta_mean_motion_dot": -2.16e-06,
        "meta_mean_motion_ddot": 0,
        "tle_line1": "1 37781U 11043A   25355.84786095 -.00000216  00000+0 -16936-3 0  9990",
        "tle_line2": "2 37781  99.3371 356.6419 0001625  71.8688 288.2641 13.78835362722240"
      },
      "geometry": {
        "type": "Point",
        "coordinates": [
          -179.14471668240293,
          22.07117003688987
        ]
      }
    },
    {
      "type": "Feature",
      "properties": {
        "norad_id": 37791,
        "name": "RASAT",
        "group": "resource",
        "lat": 74.45395881431821,
        "lon": 54.71553794734379,
        "alt_km": 649.0483588897605,
        "timestamp": "2025-12-22T05:49:03.139087+00:00",
        "meta_object_name": "RASAT",
        "meta_object_id": "2011-044D",
        "meta_epoch": "2025-12-21T20:17:00.192768",
        "meta_mean_motion": 14.67920586,
        "meta_eccentricity": 0.0021499,
        "meta_inclination": 98.0651,
        "meta_ra_of_asc_node": 84.9682,
        "meta_arg_of_pericenter": 37.6032,
        "meta_mean_anomaly": 100.8831,
        "meta_ephemeris_type": 0,
        "meta_classification_type": "U",
        "meta_norad_cat_id": 37791,
        "meta_element_set_no": 999,
        "meta_rev_at_epoch": 76716,
        "meta_bstar": 7.7933e-05,
        "meta_mean_motion_dot": 3.98e-06,
        "meta_mean_motion_ddot": 0,
        "tle_line1": "1 37791U 11044D   25355.84514112  .00000398  00000+0  77933-4 0  9995",
        "tle_line2": "2 37791  98.0651  84.9682 0021499  37.6032 100.8831 14.67920586767167"
      },
      "geometry": {
        "type": "Point",
        "coordinates": [
          54.71553794734379,
          74.45395881431821
        ]
      }
    },
    {
      "type": "Feature",
      "properties": {
        "norad_id": 37841,
        "name": "SRMSAT",
        "group": "resource",
        "lat": -14.28006992463962,
        "lon": -85.06711822683941,
        "alt_km": 862.0050667629785,
        "timestamp": "2025-12-22T05:49:03.139098+00:00",
        "meta_object_name": "SRMSAT",
        "meta_object_id": "2011-058D",
        "meta_epoch": "2025-12-21T11:55:34.039200",
        "meta_mean_motion": 14.11514217,
        "meta_eccentricity": 0.00119651,
        "meta_inclination": 19.9726,
        "meta_ra_of_asc_node": 54.9508,
        "meta_arg_of_pericenter": 49.5052,
        "meta_mean_anomaly": 340.41,
        "meta_ephemeris_type": 0,
        "meta_classification_type": "U",
        "meta_norad_cat_id": 37841,
        "meta_element_set_no": 999,
        "meta_rev_at_epoch": 73268,
        "meta_bstar": 7.0305754e-05,
        "meta_mean_motion_dot": 3.94e-06,
        "meta_mean_motion_ddot": 0,
        "tle_line1": "1 37841U 11058D   25355.49692175  .00000394  00000+0  70306-4 0  9996",
        "tle_line2": "2 37841  19.9726  54.9508 0011965  49.5052 340.4100 14.11514217732682"
      },
      "geometry": {
        "type": "Point",
        "coordinates": [
          -85.06711822683941,
          -14.28006992463962
        ]
      }
    },
    {
      "type": "Feature",
      "properties": {
        "norad_id": 38012,
        "name": "PLEIADES 1A",
        "group": "resource",
        "lat": -81.49226906546423,
        "lon": 142.97684343390986,
        "alt_km": 705.9253073358495,
        "timestamp": "2025-12-22T05:49:03.139108+00:00",
        "meta_object_name": "PLEIADES 1A",
        "meta_object_id": "2011-076F",
        "meta_epoch": "2025-12-21T20:55:41.966400",
        "meta_mean_motion": 14.58568069,
        "meta_eccentricity": 0.0001157,
        "meta_inclination": 98.1819,
        "meta_ra_of_asc_node": 68.4999,
        "meta_arg_of_pericenter": 75.1023,
        "meta_mean_anomaly": 53.5524,
        "meta_ephemeris_type": 0,
        "meta_classification_type": "U",
        "meta_norad_cat_id": 38012,
        "meta_element_set_no": 999,
        "meta_rev_at_epoch": 74614,
        "meta_bstar": 2.5782e-05,
        "meta_mean_motion_dot": 7.4e-07,
        "meta_mean_motion_ddot": 0,
        "tle_line1": "1 38012U 11076F   25355.87201350  .00000074  00000+0  25782-4 0  9993",
        "tle_line2": "2 38012  98.1819  68.4999 0001157  75.1023  53.5524 14.58568069746147"
      },
      "geometry": {
        "type": "Point",
        "coordinates": [
          142.97684343390986,
          -81.49226906546423
        ]
      }
    },
    {
      "type": "Feature",
      "properties": {
        "norad_id": 38038,
        "name": "ZIYUAN 1-02C (ZY 1-02C)",
        "group": "resource",
        "lat": -18.327729970582467,
        "lon": -120.73578095781652,
        "alt_km": 769.5794716227238,
        "timestamp": "2025-12-22T05:49:03.139118+00:00",
        "meta_object_name": "ZIYUAN 1-02C (ZY 1-02C)",
        "meta_object_id": "2011-079A",
        "meta_epoch": "2025-12-21T21:06:41.721984",
        "meta_mean_motion": 14.38021084,
        "meta_eccentricity": 0.0007486,
        "meta_inclination": 98.4327,
        "meta_ra_of_asc_node": 61.7249,
        "meta_arg_of_pericenter": 114.3993,
        "meta_mean_anomaly": 7.1183,
        "meta_ephemeris_type": 0,
        "meta_classification_type": "U",
        "meta_norad_cat_id": 38038,
        "meta_element_set_no": 999,
        "meta_rev_at_epoch": 73372,
        "meta_bstar": 0.00012048,
        "meta_mean_motion_dot": 3.21e-06,
        "meta_mean_motion_ddot": 0,
        "tle_line1": "1 38038U 11079A   25355.87964956  .00000321  00000+0  12048-3 0  9997",
        "tle_line2": "2 38038  98.4327  61.7249 0007486 114.3993   7.1183 14.38021084733724"
      },
      "geometry": {
        "type": "Point",
        "coordinates": [
          -120.73578095781652,
          -18.327729970582467
        ]
      }
    },
    {
      "type": "Feature",
      "properties": {
        "norad_id": 38338,
        "name": "ARIRANG-3 (KOMPSAT-3)",
        "group": "resource",
        "lat": -78.7706685198102,
        "lon": -1.509241909844691,
        "alt_km": 691.9234682734104,
        "timestamp": "2025-12-22T05:49:03.139129+00:00",
        "meta_object_name": "ARIRANG-3 (KOMPSAT-3)",
        "meta_object_id": "2012-025B",
        "meta_epoch": "2025-12-21T20:20:12.276384",
        "meta_mean_motion": 14.61723635,
        "meta_eccentricity": 0.0004833,
        "meta_inclination": 98.3336,
        "meta_ra_of_asc_node": 310.5059,
        "meta_arg_of_pericenter": 306.637,
        "meta_mean_anomaly": 53.4385,
        "meta_ephemeris_type": 0,
        "meta_classification_type": "U",
        "meta_norad_cat_id": 38338,
        "meta_element_set_no": 999,
        "meta_rev_at_epoch": 72543,
        "meta_bstar": 9.8213e-05,
        "meta_mean_motion_dot": 4.41e-06,
        "meta_mean_motion_ddot": 0,
        "tle_line1": "1 38338U 12025B   25355.84736431  .00000441  00000+0  98213-4 0  9996",
        "tle_line2": "2 38338  98.3336 310.5059 0004833 306.6370  53.4385 14.61723635725432"
      },
      "geometry": {
        "type": "Point",
        "coordinates": [
          -1.509241909844691,
          -78.7706685198102
        ]
      }
    },
    {
      "type": "Feature",
      "properties": {
        "norad_id": 38709,
        "name": "EXACTVIEW-1 (ADS-1B)",
        "group": "resource",
        "lat": 77.67924368334924,
        "lon": -28.89515750621136,
        "alt_km": 806.4330302481603,
        "timestamp": "2025-12-22T05:49:03.139139+00:00",
        "meta_object_name": "EXACTVIEW-1 (ADS-1B)",
        "meta_object_id": "2012-039C",
        "meta_epoch": "2025-12-21T17:33:37.506240",
        "meta_mean_motion": 14.24911374,
        "meta_eccentricity": 0.0010233,
        "meta_inclination": 98.9637,
        "meta_ra_of_asc_node": 104.3104,
        "meta_arg_of_pericenter": 327.5042,
        "meta_mean_anomaly": 32.5505,
        "meta_ephemeris_type": 0,
        "meta_classification_type": "U",
        "meta_norad_cat_id": 38709,
        "meta_element_set_no": 999,
        "meta_rev_at_epoch": 69743,
        "meta_bstar": 7.2445e-05,
        "meta_mean_motion_dot": 1.23e-06,
        "meta_mean_motion_ddot": 0,
        "tle_line1": "1 38709U 12039C   25355.73168410  .00000123  00000+0  72445-4 0  9993",
        "tle_line2": "2 38709  98.9637 104.3104 0010233 327.5042  32.5505 14.24911374697431"
      },
      "geometry": {
        "type": "Point",
        "coordinates": [
          -28.89515750621136,
          77.67924368334924
        ]
      }
    }
  ]
}